2025-313BC              
1 67298U 25313BC  26068.18968176  .00075331  00000+0  26410-2 0  9997
2 67298  97.3985 144.8110 0008478 328.9209  31.1528 15.29126358  7890
STARLINK-36499          
1 67359U 26003AB  26068.45826705  .00025188  00000+0  92069-3 0  9992
2 67359  42.9994 228.7861 0001927 278.6240  81.4393 15.27616462  8782
