[{"OBJECT_NAME":"OBJECT BC","OBJECT_ID":"2025-313BC","EPOCH":"2026-03-09T04:33:08.504064","MEAN_MOTION":15.29126358,"ECCENTRICITY":0.00084789,"INCLINATION":97.3985,"RA_OF_ASC_NODE":144.811,"ARG_OF_PERICENTER":328.9209,"MEAN_ANOMALY":31.1528,"EPHEMERIS_TYPE":0,"CLASSIFICATION_TYPE":"U","NORAD_CAT_ID":67298,"ELEMENT_SET_NO":999,"REV_AT_EPOCH":789,"BSTAR":0.0026410397,"MEAN_MOTION_DOT":0.00075331,"MEAN_MOTION_DDOT":0},{"OBJECT_NAME":"STARLINK-36499","OBJECT_ID":"2026-003AB","EPOCH":"2026-03-09T10:59:54.273120","MEAN_MOTION":15.27616462,"ECCENTRICITY":0.00019271,"INCLINATION":42.9994,"RA_OF_ASC_NODE":228.7861,"ARG_OF_PERICENTER":278.624,"MEAN_ANOMALY":81.4393,"EPHEMERIS_TYPE":0,"CLASSIFICATION_TYPE":"U","NORAD_CAT_ID":67359,"ELEMENT_SET_NO":999,"REV_AT_EPOCH":878,"BSTAR":0.0009206871,"MEAN_MOTION_DOT":0.00025188,"MEAN_MOTION_DDOT":0}]
